{"type": "FeatureCollection", "features": [ {"type": "Feature", "properties": {"norad_id": 44476, "name": "INTELSAT 39 (IS-39)", "group": "intelsat", "lat": 0.037369201334168434, "lon": 43.3444724899477, "alt_km": 35786.6695260885, "timestamp": "2025-12-20T16:47:35.959177+00:00", "meta": {"OBJECT_NAME": "INTELSAT 39 (IS-39)", "OBJECT_ID": "2019-049B", "EPOCH": "2025-12-20T10:05:49.115904", "MEAN_MOTION": 1.002697, "ECCENTRICITY": 0.0001066, "INCLINATION": 0.025, "RA_OF_ASC_NODE": 358.625, "ARG_OF_PERICENTER": 135.3265, "MEAN_ANOMALY": 168.6966, "EPHEMERIS_TYPE": 0, "CLASSIFICATION_TYPE": "U", "NORAD_CAT_ID": 44476, "ELEMENT_SET_NO": 999, "REV_AT_EPOCH": 2333, "BSTAR": 0, "MEAN_MOTION_DOT": 0, "MEAN_MOTION_DDOT": 0}, "tle": {"line1": "1 44476U 19049B   25354.42070736  .00000000  00000+0  00000+0 0  9994", "line2": "2 44476   0.0250 358.6250 0001066 135.3265 168.6966  1.00269700 23339"}}, "geometry": {"type": "Point", "coordinates": [43.3444724899477, 0.037369201334168434]}}, {"type": "Feature", "properties": {"norad_id": 46114, "name": "GALAXY 30 (G-30)", "group": "intelsat", "lat": -0.028826306819601178, "lon": -143.58014435855418, "alt_km": 35780.740608641776, "timestamp": "2025-12-20T16:47:35.959189+00:00", "meta": {"OBJECT_NAME": "GALAXY 30 (G-30)", "OBJECT_ID": "2020-056C", "EPOCH": "2025-12-20T10:15:38.712096", "MEAN_MOTION": 1.00273232, "ECCENTRICITY": 0.0002027, "INCLINATION": 0.0119, "RA_OF_ASC_NODE": 340.3742, "ARG_OF_PERICENTER": 291.1216, "MEAN_ANOMALY": 206.6944, "EPHEMERIS_TYPE": 0, "CLASSIFICATION_TYPE": "U", "NORAD_CAT_ID": 46114, "ELEMENT_SET_NO": 999, "REV_AT_EPOCH": 1950, "BSTAR": 0, "MEAN_MOTION_DOT": 6e-07, "MEAN_MOTION_DDOT": 0}, "tle": {"line1": "1 46114U 20056C   25354.42753139  .00000060  00000+0  00000+0 0  9996", "line2": "2 46114   0.0119 340.3742 0002027 291.1216 206.6944  1.00273232 19501"}}, "geometry": {"type": "Point", "coordinates": [-143.58014435855418, -0.028826306819601178]}}, {"type": "Feature", "properties": {"norad_id": 54026, "name": "GALAXY 33 (G-33)", "group": "intelsat", "lat": -0.003687139877375766, "lon": -151.5936384653715, "alt_km": 35782.956004007356, "timestamp": "2025-12-20T16:47:35.959201+00:00", "meta": {"OBJECT_NAME": "GALAXY 33 (G-33)", "OBJECT_ID": "2022-128A", "EPOCH": "2025-12-20T10:56:02.827392", "MEAN_MOTION": 1.00271265, "ECCENTRICITY": 0.0001552, "INCLINATION": 0.0157, "RA_OF_ASC_NODE": 41.9157, "ARG_OF_PERICENTER": 226.869, "MEAN_ANOMALY": 211.5183, "EPHEMERIS_TYPE": 0, "CLASSIFICATION_TYPE": "U", "NORAD_CAT_ID": 54026, "ELEMENT_SET_NO": 999, "REV_AT_EPOCH": 1195, "BSTAR": 0, "MEAN_MOTION_DOT": 1.03e-06, "MEAN_MOTION_DDOT": 0}, "tle": {"line1": "1 54026U 22128A   25354.45558828  .00000103  00000+0  00000+0 0  9998", "line2": "2 54026   0.0157  41.9157 0001552 226.8690 211.5183  1.00271265 11956"}}, "geometry": {"type": "Point", "coordinates": [-151.5936384653715, -0.003687139877375766]}}, {"type": "Feature", "properties": {"norad_id": 54027, "name": "GALAXY 34 (G-34)", "group": "intelsat", "lat": -0.022932534306093176, "lon": -147.5423130376228, "alt_km": 35782.47140079669, "timestamp": "2025-12-20T16:47:35.959212+00:00", "meta": {"OBJECT_NAME": "GALAXY 34 (G-34)", "OBJECT_ID": "2022-128B", "EPOCH": "2025-12-20T09:17:38.654880", "MEAN_MOTION": 1.00267861, "ECCENTRICITY": 0.000178, "INCLINATION": 0.0228, "RA_OF_ASC_NODE": 9.5689, "ARG_OF_PERICENTER": 254.4023, "MEAN_ANOMALY": 195.7195, "EPHEMERIS_TYPE": 0, "CLASSIFICATION_TYPE": "U", "NORAD_CAT_ID": 54027, "ELEMENT_SET_NO": 999, "REV_AT_EPOCH": 1212, "BSTAR": 0, "MEAN_MOTION_DOT": 0, "MEAN_MOTION_DDOT": 0}, "tle": {"line1": "1 54027U 22128B   25354.38725295  .00000000  00000+0  00000+0 0  9991", "line2": "2 54027   0.0228   9.5689 0001780 254.4023 195.7195  1.00267861 12129"}}, "geometry": {"type": "Point", "coordinates": [-147.5423130376228, -0.022932534306093176]}}, {"type": "Feature", "properties": {"norad_id": 54243, "name": "GALAXY 31 (G-31)", "group": "intelsat", "lat": -0.0025824616159769507, "lon": -139.5922029143178, "alt_km": 35783.16639875101, "timestamp": "2025-12-20T16:47:35.959223+00:00", "meta": {"OBJECT_NAME": "GALAXY 31 (G-31)", "OBJECT_ID": "2022-153A", "EPOCH": "2025-12-20T08:25:42.828096", "MEAN_MOTION": 1.00271098, "ECCENTRICITY": 0.0001373, "INCLINATION": 0.0188, "RA_OF_ASC_NODE": 82.0185, "ARG_OF_PERICENTER": 196.3951, "MEAN_ANOMALY": 176.2028, "EPHEMERIS_TYPE": 0, "CLASSIFICATION_TYPE": "U", "NORAD_CAT_ID": 54243, "ELEMENT_SET_NO": 999, "REV_AT_EPOCH": 534, "BSTAR": 0, "MEAN_MOTION_DOT": 3.7e-07, "MEAN_MOTION_DDOT": 0}, "tle": {"line1": "1 54243U 22153A   25354.35119014  .00000037  00000+0  00000+0 0  9992", "line2": "2 54243   0.0188  82.0185 0001373 196.3951 176.2028  1.00271098  5345"}}, "geometry": {"type": "Point", "coordinates": [-139.5922029143178, -0.0025824616159769507]}}, {"type": "Feature", "properties": {"norad_id": 54244, "name": "GALAXY 32 (G-32)", "group": "intelsat", "lat": -0.0357057224533384, "lon": -109.59457062943888, "alt_km": 35783.256317492305, "timestamp": "2025-12-20T16:47:35.959235+00:00", "meta": {"OBJECT_NAME": "GALAXY 32 (G-32)", "OBJECT_ID": "2022-153B", "EPOCH": "2025-12-19T12:21:45.204192", "MEAN_MOTION": 1.00271304, "ECCENTRICITY": 0.0001932, "INCLINATION": 0.0112, "RA_OF_ASC_NODE": 8.1777, "ARG_OF_PERICENTER": 310.6888, "MEAN_ANOMALY": 223.9419, "EPHEMERIS_TYPE": 0, "CLASSIFICATION_TYPE": "U", "NORAD_CAT_ID": 54244, "ELEMENT_SET_NO": 999, "REV_AT_EPOCH": 1134, "BSTAR": 0, "MEAN_MOTION_DOT": -1.5e-06, "MEAN_MOTION_DDOT": 0}, "tle": {"line1": "1 54244U 22153B   25353.51510653 -.00000150  00000+0  00000+0 0  9991", "line2": "2 54244   0.0112   8.1777 0001932 310.6888 223.9419  1.00271304 11341"}}, "geometry": {"type": "Point", "coordinates": [-109.59457062943888, -0.0357057224533384]}}, {"type": "Feature", "properties": {"norad_id": 54741, "name": "GALAXY 35 (G-35)", "group": "intelsat", "lat": -0.02179931399732194, "lon": -111.6830226353801, "alt_km": 35777.642009539435, "timestamp": "2025-12-20T16:47:35.959247+00:00", "meta": {"OBJECT_NAME": "GALAXY 35 (G-35)", "OBJECT_ID": "2022-170A", "EPOCH": "2025-12-20T11:17:55.670208", "MEAN_MOTION": 1.00272221, "ECCENTRICITY": 0.000215, "INCLINATION": 0.0149, "RA_OF_ASC_NODE": 49.7326, "ARG_OF_PERICENTER": 222.5076, "MEAN_ANOMALY": 253.4523, "EPHEMERIS_TYPE": 0, "CLASSIFICATION_TYPE": "U", "NORAD_CAT_ID": 54741, "ELEMENT_SET_NO": 999, "REV_AT_EPOCH": 1110, "BSTAR": 0, "MEAN_MOTION_DOT": -1.39e-06, "MEAN_MOTION_DDOT": 0}, "tle": {"line1": "1 54741U 22170A   25354.47078322 -.00000139  00000+0  00000+0 0  9997", "line2": "2 54741   0.0149  49.7326 0002150 222.5076 253.4523  1.00272221 11104"}}, "geometry": {"type": "Point", "coordinates": [-111.6830226353801, -0.02179931399732194]}}, {"type": "Feature", "properties": {"norad_id": 54742, "name": "GALAXY 36 (G-36)", "group": "intelsat", "lat": -0.03740870679782202, "lon": -107.59237388457089, "alt_km": 35787.04935583627, "timestamp": "2025-12-20T16:47:35.959258+00:00", "meta": {"OBJECT_NAME": "GALAXY 36 (G-36)", "OBJECT_ID": "2022-170B", "EPOCH": "2025-12-20T05:57:27.899712", "MEAN_MOTION": 1.00269554, "ECCENTRICITY": 4.24e-05, "INCLINATION": 0.0144, "RA_OF_ASC_NODE": 13.7124, "ARG_OF_PERICENTER": 338.7619, "MEAN_ANOMALY": 96.9725, "EPHEMERIS_TYPE": 0, "CLASSIFICATION_TYPE": "U", "NORAD_CAT_ID": 54742, "ELEMENT_SET_NO": 999, "REV_AT_EPOCH": 1098, "BSTAR": 0, "MEAN_MOTION_DOT": 0, "MEAN_MOTION_DDOT": 0}, "tle": {"line1": "1 54742U 22170B   25354.24823958  .00000000  00000+0  00000+0 0  9992", "line2": "2 54742   0.0144  13.7124 0000424 338.7619  96.9725  1.00269554 10986"}}, "geometry": {"type": "Point", "coordinates": [-107.59237388457089, -0.03740870679782202]}}, {"type": "Feature", "properties": {"norad_id": 57493, "name": "GALAXY 37 (G-37)", "group": "intelsat", "lat": -0.02684711055038179, "lon": -145.60320215592083, "alt_km": 35781.92757660229, "timestamp": "2025-12-20T16:47:35.959270+00:00", "meta": {"OBJECT_NAME": "GALAXY 37 (G-37)", "OBJECT_ID": "2023-112A", "EPOCH": "2025-12-20T09:17:38.654880", "MEAN_MOTION": 1.0027088, "ECCENTRICITY": 0.0001926, "INCLINATION": 0.0163, "RA_OF_ASC_NODE": 356.4838, "ARG_OF_PERICENTER": 275.4186, "MEAN_ANOMALY": 189.7268, "EPHEMERIS_TYPE": 0, "CLASSIFICATION_TYPE": "U", "NORAD_CAT_ID": 57493, "ELEMENT_SET_NO": 999, "REV_AT_EPOCH": 875, "BSTAR": 0, "MEAN_MOTION_DOT": 7.2e-07, "MEAN_MOTION_DDOT": 0}, "tle": {"line1": "1 57493U 23112A   25354.38725295  .00000072  00000+0  00000+0 0  9994", "line2": "2 57493   0.0163 356.4838 0001926 275.4186 189.7268  1.00270880  8755"}}, "geometry": {"type": "Point", "coordinates": [-145.60320215592083, -0.02684711055038179]}}]}